[{"OBJECT_NAME":"KUIPER-00018","OBJECT_ID":"2025-088K","EPOCH":"2026-03-09T09:14:13.950816","MEAN_MOTION":14.79966884,"ECCENTRICITY":0.00010275,"INCLINATION":51.9017,"RA_OF_ASC_NODE":101.9157,"ARG_OF_PERICENTER":120.7858,"MEAN_ANOMALY":239.3206,"EPHEMERIS_TYPE":0,"CLASSIFICATION_TYPE":"U","NORAD_CAT_ID":63733,"ELEMENT_SET_NO":999,"REV_AT_EPOCH":4744,"BSTAR":0.001710843,"MEAN_MOTION_DOT":0.00012856,"MEAN_MOTION_DDOT":0},{"OBJECT_NAME":"NOAA 16 DEB","OBJECT_ID":"2000-055MU","EPOCH":"2026-03-07T08:24:35.897472","MEAN_MOTION":14.74621786,"ECCENTRICITY":0.00249921,"INCLINATION":98.8646,"RA_OF_ASC_NODE":209.8947,"ARG_OF_PERICENTER":270.3207,"MEAN_ANOMALY":89.5136,"EPHEMERIS_TYPE":0,"CLASSIFICATION_TYPE":"U","NORAD_CAT_ID":41520,"ELEMENT_SET_NO":999,"REV_AT_EPOCH":51175,"BSTAR":0.011935935,"MEAN_MOTION_DOT":0.0008086,"MEAN_MOTION_DDOT":0}]
